[{"OBJECT_NAME":"OSCAR 7 (AO-7)","OBJECT_ID":"1974-089B","EPOCH":"2026-04-05T00:56:04.185312","MEAN_MOTION":12.53696937,"ECCENTRICITY":0.00118682,"INCLINATION":101.9951,"RA_OF_ASC_NODE":107.5125,"ARG_OF_PERICENTER":270.6288,"MEAN_ANOMALY":109.0426,"EPHEMERIS_TYPE":0,"CLASSIFICATION_TYPE":"U","NORAD_CAT_ID":7530,"ELEMENT_SET_NO":999,"REV_AT_EPOCH":35135,"BSTAR":-3.4430493e-5,"MEAN_MOTION_DOT":-5.2e-7,"MEAN_MOTION_DDOT":0},{"OBJECT_NAME":"PHASE 3B (AO-10)","OBJECT_ID":"1983-058B","EPOCH":"2026-04-04T13:22:50.655936","MEAN_MOTION":2.05870704,"ECCENTRICITY":0.60373107,"INCLINATION":25.9042,"RA_OF_ASC_NODE":231.8754,"ARG_OF_PERICENTER":95.3177,"MEAN_ANOMALY":331.8918,"EPHEMERIS_TYPE":0,"CLASSIFICATION_TYPE":"U","NORAD_CAT_ID":14129,"ELEMENT_SET_NO":999,"REV_AT_EPOCH":29397,"BSTAR":0,"MEAN_MOTION_DOT":1.9e-6,"MEAN_MOTION_DDOT":0},{"OBJECT_NAME":"UOSAT 2 (UO-11)","OBJECT_ID":"1984-021B","EPOCH":"2026-04-05T04:33:55.032192","MEAN_MOTION":14.90606767,"ECCENTRICITY":0.00091397,"INCLINATION":97.7996,"RA_OF_ASC_NODE":61.6194,"ARG_OF_PERICENTER":69.798,"MEAN_ANOMALY":290.4221,"EPHEMERIS_TYPE":0,"CLASSIFICATION_TYPE":"U","NORAD_CAT_ID":14781,"ELEMENT_SET_NO":999,"REV_AT_EPOCH":24625,"BSTAR":0.00027716243,"MEAN_MOTION_DOT":2.659e-5,"MEAN_MOTION_DDOT":0},{"OBJECT_NAME":"LUSAT (LO-19)","OBJECT_ID":"1990-005G","EPOCH":"2026-04-05T06:33:21.966624","MEAN_MOTION":14.34099913,"ECCENTRICITY":0.0012553,"INCLINATION":98.8912,"RA_OF_ASC_NODE":115.051,"ARG_OF_PERICENTER":62.851,"MEAN_ANOMALY":297.3952,"EPHEMERIS_TYPE":0,"CLASSIFICATION_TYPE":"U","NORAD_CAT_ID":20442,"ELEMENT_SET_NO":999,"REV_AT_EPOCH":89194,"BSTAR":9.1069826e-5,"MEAN_MOTION_DOT":2.08e-6,"MEAN_MOTION_DDOT":0},{"OBJECT_NAME":"EYESAT A (AO-27)","OBJECT_ID":"1993-061C","EPOCH":"2026-04-05T03:19:41.410272","MEAN_MOTION":14.30922415,"ECCENTRICITY":0.00075472,"INCLINATION":98.6929,"RA_OF_ASC_NODE":162.5617,"ARG_OF_PERICENTER":320.7538,"MEAN_ANOMALY":39.3096,"EPHEMERIS_TYPE":0,"CLASSIFICATION_TYPE":"U","NORAD_CAT_ID":22825,"ELEMENT_SET_NO":999,"REV_AT_EPOCH":69655,"BSTAR":7.7285089e-5,"MEAN_MOTION_DOT":1.58e-6,"MEAN_MOTION_DDOT":0},{"OBJECT_NAME":"ITAMSAT (IO-26)","OBJECT_ID":"1993-061D","EPOCH":"2026-04-05T03:21:18.518688","MEAN_MOTION":14.31347348,"ECCENTRICITY":0.00078397,"INCLINATION":98.6878,"RA_OF_ASC_NODE":162.4731,"ARG_OF_PERICENTER":302.0253,"MEAN_ANOMALY":58.0167,"EPHEMERIS_TYPE":0,"CLASSIFICATION_TYPE":"U","NORAD_CAT_ID":22826,"ELEMENT_SET_NO":999,"REV_AT_EPOCH":69686,"BSTAR":8.1940885e-5,"MEAN_MOTION_DOT":1.72e-6,"MEAN_MOTION_DDOT":0},{"OBJECT_NAME":"RADIO ROSTO (RS15)","OBJECT_ID":"1994-085A","EPOCH":"2026-04-05T05:07:31.417248","MEAN_MOTION":11.27583833,"ECCENTRICITY":0.01536791,"INCLINATION":64.8169,"RA_OF_ASC_NODE":61.2314,"ARG_OF_PERICENTER":17.117,"MEAN_ANOMALY":343.4858,"EPHEMERIS_TYPE":0,"CLASSIFICATION_TYPE":"U","NORAD_CAT_ID":23439,"ELEMENT_SET_NO":999,"REV_AT_EPOCH":28767,"BSTAR":-0.00020727489,"MEAN_MOTION_DOT":-5.0e-7,"MEAN_MOTION_DDOT":0},{"OBJECT_NAME":"JAS-2 (FO-29)","OBJECT_ID":"1996-046B","EPOCH":"2026-04-05T02:44:55.557024","MEAN_MOTION":13.53270581,"ECCENTRICITY":0.03488812,"INCLINATION":98.5334,"RA_OF_ASC_NODE":313.9546,"ARG_OF_PERICENTER":286.1171,"MEAN_ANOMALY":70.1831,"EPHEMERIS_TYPE":0,"CLASSIFICATION_TYPE":"U","NORAD_CAT_ID":24278,"ELEMENT_SET_NO":999,"REV_AT_EPOCH":46328,"BSTAR":4.9259702e-5,"MEAN_MOTION_DOT":1.0e-7,"MEAN_MOTION_DDOT":0},{"OBJECT_NAME":"TECHSAT 1B (GO-32)","OBJECT_ID":"1998-043D","EPOCH":"2026-04-05T05:19:43.786848","MEAN_MOTION":14.24413734,"ECCENTRICITY":0.00023049,"INCLINATION":99.0053,"RA_OF_ASC_NODE":86.1499,"ARG_OF_PERICENTER":76.7559,"MEAN_ANOMALY":283.3876,"EPHEMERIS_TYPE":0,"CLASSIFICATION_TYPE":"U","NORAD_CAT_ID":25397,"ELEMENT_SET_NO":999,"REV_AT_EPOCH":44094,"BSTAR":6.8983234e-5,"MEAN_MOTION_DOT":1.13e-6,"MEAN_MOTION_DDOT":0},{"OBJECT_NAME":"ISS (ZARYA)","OBJECT_ID":"1998-067A","EPOCH":"2026-04-05T00:53:27.707136","MEAN_MOTION":15.4877812,"ECCENTRICITY":0.00062949,"INCLINATION":51.6327,"RA_OF_ASC_NODE":302.0967,"ARG_OF_PERICENTER":273.6206,"MEAN_ANOMALY":86.4063,"EPHEMERIS_TYPE":0,"CLASSIFICATION_TYPE":"U","NORAD_CAT_ID":25544,"ELEMENT_SET_NO":999,"REV_AT_EPOCH":56041,"BSTAR":0.00017854288,"MEAN_MOTION_DOT":9.326e-5,"MEAN_MOTION_DDOT":0},{"OBJECT_NAME":"PCSAT (NO-44)","OBJECT_ID":"2001-043C","EPOCH":"2026-04-05T05:45:34.924320","MEAN_MOTION":14.31926836,"ECCENTRICITY":0.00068177,"INCLINATION":67.0498,"RA_OF_ASC_NODE":72.9417,"ARG_OF_PERICENTER":264.5411,"MEAN_ANOMALY":95.4914,"EPHEMERIS_TYPE":0,"CLASSIFICATION_TYPE":"U","NORAD_CAT_ID":26931,"ELEMENT_SET_NO":999,"REV_AT_EPOCH":28000,"BSTAR":0.00012926867,"MEAN_MOTION_DOT":2.64e-6,"MEAN_MOTION_DDOT":0},{"OBJECT_NAME":"SAUDISAT 1C (SO-50)","OBJECT_ID":"2002-058C","EPOCH":"2026-04-05T02:55:49.440864","MEAN_MOTION":14.82889051,"ECCENTRICITY":0.0075478,"INCLINATION":64.5552,"RA_OF_ASC_NODE":355.0194,"ARG_OF_PERICENTER":275.8009,"MEAN_ANOMALY":83.4496,"EPHEMERIS_TYPE":0,"CLASSIFICATION_TYPE":"U","NORAD_CAT_ID":27607,"ELEMENT_SET_NO":999,"REV_AT_EPOCH":25362,"BSTAR":0.0002405924,"MEAN_MOTION_DOT":1.899e-5,"MEAN_MOTION_DDOT":0},{"OBJECT_NAME":"CUTE-1 (CO-55)","OBJECT_ID":"2003-031E","EPOCH":"2026-04-04T23:28:29.707104","MEAN_MOTION":14.2428935,"ECCENTRICITY":0.00103254,"INCLINATION":98.6769,"RA_OF_ASC_NODE":104.4513,"ARG_OF_PERICENTER":43.9369,"MEAN_ANOMALY":316.263,"EPHEMERIS_TYPE":0,"CLASSIFICATION_TYPE":"U","NORAD_CAT_ID":27844,"ELEMENT_SET_NO":999,"REV_AT_EPOCH":18125,"BSTAR":0.00021712788,"MEAN_MOTION_DOT":4.58e-6,"MEAN_MOTION_DDOT":0},{"OBJECT_NAME":"CUBESAT XI-IV (CO-57)","OBJECT_ID":"2003-031J","EPOCH":"2026-04-05T00:00:26.441856","MEAN_MOTION":14.23580899,"ECCENTRICITY":0.00104798,"INCLINATION":98.6802,"RA_OF_ASC_NODE":104.2449,"ARG_OF_PERICENTER":60.3929,"MEAN_ANOMALY":299.8292,"EPHEMERIS_TYPE":0,"CLASSIFICATION_TYPE":"U","NORAD_CAT_ID":27848,"ELEMENT_SET_NO":999,"REV_AT_EPOCH":18096,"BSTAR":0.00018383126,"MEAN_MOTION_DOT":3.75e-6,"MEAN_MOTION_DDOT":0},{"OBJECT_NAME":"MOZHAETS 4 (RS22)","OBJECT_ID":"2003-042A","EPOCH":"2026-04-05T07:07:26.601024","MEAN_MOTION":14.73335037,"ECCENTRICITY":0.00121222,"INCLINATION":98.3454,"RA_OF_ASC_NODE":277.6023,"ARG_OF_PERICENTER":135.5495,"MEAN_ANOMALY":36.6553,"EPHEMERIS_TYPE":0,"CLASSIFICATION_TYPE":"U","NORAD_CAT_ID":27939,"ELEMENT_SET_NO":999,"REV_AT_EPOCH":20481,"BSTAR":0.00033479448,"MEAN_MOTION_DOT":2.116e-5,"MEAN_MOTION_DDOT":0},{"OBJECT_NAME":"CUBESAT XI-V","OBJECT_ID":"2005-043F","EPOCH":"2026-04-05T05:16:09.397344","MEAN_MOTION":14.72437411,"ECCENTRICITY":0.00153009,"INCLINATION":98.2886,"RA_OF_ASC_NODE":249.3545,"ARG_OF_PERICENTER":79.0212,"MEAN_ANOMALY":281.2715,"EPHEMERIS_TYPE":0,"CLASSIFICATION_TYPE":"U","NORAD_CAT_ID":28895,"ELEMENT_SET_NO":999,"REV_AT_EPOCH":9101,"BSTAR":0.00042563369,"MEAN_MOTION_DOT":2.651e-5,"MEAN_MOTION_DDOT":0}]
