OSCAR 7 (AO-7)          
1 07530U 74089B   26095.03893733 -.00000052  00000+0 -34430-4 0  9997
2 07530 101.9951 107.5125 0011868 270.6288 109.0426 12.53696937351351
PHASE 3B (AO-10)        
1 14129U 83058B   26094.55753074  .00000190  00000+0  00000+0 0  9996
2 14129  25.9042 231.8754 6037310  95.3177 331.8918  2.05870704293979
UOSAT 2 (UO-11)         
1 14781U 84021B   26095.19022028  .00002659  00000+0  27716-3 0  9999
2 14781  97.7996  61.6194 0009139  69.7980 290.4221 14.90606767246253
LUSAT (LO-19)           
1 20442U 90005G   26095.27317091  .00000208  00000+0  91070-4 0  9998
2 20442  98.8912 115.0510 0012553  62.8510 297.3952 14.34099913891943
EYESAT A (AO-27)        
1 22825U 93061C   26095.13867373  .00000158  00000+0  77285-4 0  9994
2 22825  98.6929 162.5617 0007547 320.7538  39.3096 14.30922415696555
ITAMSAT (IO-26)         
1 22826U 93061D   26095.13979767  .00000172  00000+0  81941-4 0  9996
2 22826  98.6878 162.4731 0007839 302.0253  58.0167 14.31347348696864
RADIO ROSTO (RS15)      
1 23439U 94085A   26095.21355807 -.00000050  00000+0 -20727-3 0  9997
2 23439  64.8169  61.2314 0153679  17.1170 343.4858 11.27583833287678
JAS-2 (FO-29)           
1 24278U 96046B   26095.11453191  .00000010  00000+0  49260-4 0  9990
2 24278  98.5334 313.9546 0348881 286.1171  70.1831 13.53270581463284
TECHSAT 1B (GO-32)      
1 25397U 98043D   26095.22203457  .00000113  00000+0  68983-4 0  9999
2 25397  99.0053  86.1499 0002304  76.7559 283.3876 14.24413734440940
ISS (ZARYA)             
1 25544U 98067A   26095.03712624  .00009326  00000+0  17854-3 0  9994
2 25544  51.6327 302.0967 0006294 273.6206  86.4063 15.48778120560416
PCSAT (NO-44)           
1 26931U 01043C   26095.23998755  .00000264  00000+0  12927-3 0  9994
2 26931  67.0498  72.9417 0006817 264.5411  95.4914 14.31926836280007
SAUDISAT 1C (SO-50)     
1 27607U 02058C   26095.12210001  .00001899  00000+0  24059-3 0  9995
2 27607  64.5552 355.0194 0075478 275.8009  83.4496 14.82889051253628
CUTE-1 (CO-55)          
1 27844U 03031E   26094.97812161  .00000458  00000+0  21713-3 0  9991
2 27844  98.6769 104.4513 0010325  43.9369 316.2630 14.24289350181251
CUBESAT XI-IV (CO-57)   
1 27848U 03031J   26095.00030604  .00000375  00000+0  18383-3 0  9991
2 27848  98.6802 104.2449 0010479  60.3929 299.8292 14.23580899180962
MOZHAETS 4 (RS22)       
1 27939U 03042A   26095.29683566  .00002116  00000+0  33479-3 0  9994
2 27939  98.3454 277.6023 0012122 135.5495  36.6553 14.73335037204811
CUBESAT XI-V            
1 28895U 05043F   26095.21955321  .00002651  00000+0  42563-3 0  9990
2 28895  98.2886 249.3545 0015300  79.0212 281.2715 14.72437411 91018
